KUIPER-00044            
1 64505U 25134F   26200.73893417  .00001514  00000+0  22763-3 0  9990
2 64505  51.9008  21.6327 0000686 121.0776 239.0254 14.79930355 59454
KUIPER-00046            
1 64506U 25134G   26200.77537578  .00001462  00000+0  22074-3 0  9995
2 64506  51.9006  18.9482 0000719 120.5625 239.5408 14.79944037 59490
KUIPER-00047            
1 64507U 25134H   26200.83878984  .00001518  00000+0  22798-3 0  9997
2 64507  51.9013 351.1910 0000480 129.7648 230.3356 14.79950377 59886
KUIPER-00048            
1 64508U 25134J   26200.80503212  .00001484  00000+0  22359-3 0  9999
2 64508  51.9008 351.3542 0000361  87.6057 272.4947 14.79936975 59889
KUIPER-00049            
1 64509U 25134K   26200.82533510  .00001634  00000+0  24323-3 0  9996
2 64509  51.9021   3.7303 0000588 118.6239 241.4783 14.79935052 59717
KUIPER-00050            
1 64510U 25134L   26200.77668411  .00001487  00000+0  22406-3 0  9997
2 64510  51.9022 346.4676 0000517 121.0852 239.0161 14.79930365 59952
KUIPER-00051            
1 64511U 25134M   26200.80133756  .00001447  00000+0  21876-3 0  9997
2 64511  51.9034   2.5294 0000622 125.9171 234.1849 14.79941887 59721
KUIPER-00053            
1 64513U 25134P   26200.81640532  .00001415  00000+0  20611-3 0  9996
2 64513  51.9027 357.6500 0000480 343.1559  16.9388 14.81692159 59794
KUIPER-00054            
1 64514U 25134Q   26200.80235041  .00001520  00000+0  22818-3 0  9999
2 64514  51.9015 353.8450 0000759 137.4984 222.6037 14.79953433 59844
KUIPER-00055            
1 64515U 25134R   26200.68478731  .00001390  00000+0  21133-3 0  9995
2 64515  51.9032 306.9997 0000393 117.5116 242.5886 14.79930887 60493
KUIPER-00056            
1 64516U 25134S   26200.83074810  .00001547  00000+0  23196-3 0  9998
2 64516  51.9037 358.8152 0000646 122.5973 237.5052 14.79930588 59783
KUIPER-00057            
1 64517U 25134T   26200.82264279  .00001756  00000+0  25925-3 0  9992
2 64517  51.9009   6.2805 0000600 114.5342 245.5683 14.79931450 59679
KUIPER-00058            
1 64518U 25134U   26200.86178438  .00001642  00000+0  24429-3 0  9990
2 64518  51.9031   1.0789 0000577 119.2285 240.8735 14.79944523 59750
KUIPER-00059            
1 64519U 25134V   26200.73213891  .00001576  00000+0  23573-3 0  9995
2 64519  51.9016 356.6925 0000635 127.0460 233.0560 14.79929806 59805
KUIPER-00060            
1 64520U 25134W   26200.69838506  .00001479  00000+0  22300-3 0  9997
2 64520  51.9040 356.9068 0000635 116.7312 243.3716 14.79929976 59788
KUIPER-00061            
1 64521U 25134X   26200.18385547  .00001692  00000+0  25083-3 0  9992
2 64521  51.9027   6.6334 0000802 125.8365 234.2672 14.79935173 59601
