{"fetched_at":"2026-07-20T07:40:17.151Z","source":"https://celestrak.org/NORAD/elements/gp.php?GROUP=kuiper&FORMAT=JSON","constellation":"kuiper","records":[{"OBJECT_NAME":"KUIPER-00044","OBJECT_ID":"2025-134F","EPOCH":"2026-07-19T17:44:03.912288","CLASSIFICATION_TYPE":"U","MEAN_MOTION":14.79930355,"ECCENTRICITY":0.0000686,"INCLINATION":51.9008,"RA_OF_ASC_NODE":21.6327,"ARG_OF_PERICENTER":121.0776,"MEAN_ANOMALY":239.0254,"EPHEMERIS_TYPE":0,"NORAD_CAT_ID":64505,"ELEMENT_SET_NO":999,"REV_AT_EPOCH":5945,"BSTAR":0.00022763,"MEAN_MOTION_DOT":0.00001514,"MEAN_MOTION_DDOT":0},{"OBJECT_NAME":"KUIPER-00046","OBJECT_ID":"2025-134G","EPOCH":"2026-07-19T18:36:32.467392","CLASSIFICATION_TYPE":"U","MEAN_MOTION":14.79944037,"ECCENTRICITY":0.0000719,"INCLINATION":51.9006,"RA_OF_ASC_NODE":18.9482,"ARG_OF_PERICENTER":120.5625,"MEAN_ANOMALY":239.5408,"EPHEMERIS_TYPE":0,"NORAD_CAT_ID":64506,"ELEMENT_SET_NO":999,"REV_AT_EPOCH":5949,"BSTAR":0.00022074,"MEAN_MOTION_DOT":0.00001462,"MEAN_MOTION_DDOT":0},{"OBJECT_NAME":"KUIPER-00047","OBJECT_ID":"2025-134H","EPOCH":"2026-07-19T20:07:51.442176","CLASSIFICATION_TYPE":"U","MEAN_MOTION":14.79950377,"ECCENTRICITY":0.000048,"INCLINATION":51.9013,"RA_OF_ASC_NODE":351.191,"ARG_OF_PERICENTER":129.7648,"MEAN_ANOMALY":230.3356,"EPHEMERIS_TYPE":0,"NORAD_CAT_ID":64507,"ELEMENT_SET_NO":999,"REV_AT_EPOCH":5988,"BSTAR":0.00022798,"MEAN_MOTION_DOT":0.00001518,"MEAN_MOTION_DDOT":0},{"OBJECT_NAME":"KUIPER-00048","OBJECT_ID":"2025-134J","EPOCH":"2026-07-19T19:19:14.775168","CLASSIFICATION_TYPE":"U","MEAN_MOTION":14.79936975,"ECCENTRICITY":0.0000361,"INCLINATION":51.9008,"RA_OF_ASC_NODE":351.3542,"ARG_OF_PERICENTER":87.6057,"MEAN_ANOMALY":272.4947,"EPHEMERIS_TYPE":0,"NORAD_CAT_ID":64508,"ELEMENT_SET_NO":999,"REV_AT_EPOCH":5988,"BSTAR":0.00022359,"MEAN_MOTION_DOT":0.00001484,"MEAN_MOTION_DDOT":0},{"OBJECT_NAME":"KUIPER-00049","OBJECT_ID":"2025-134K","EPOCH":"2026-07-19T19:48:28.952640","CLASSIFICATION_TYPE":"U","MEAN_MOTION":14.79935052,"ECCENTRICITY":0.0000588,"INCLINATION":51.9021,"RA_OF_ASC_NODE":3.7303,"ARG_OF_PERICENTER":118.6239,"MEAN_ANOMALY":241.4783,"EPHEMERIS_TYPE":0,"NORAD_CAT_ID":64509,"ELEMENT_SET_NO":999,"REV_AT_EPOCH":5971,"BSTAR":0.00024323,"MEAN_MOTION_DOT":0.00001634,"MEAN_MOTION_DDOT":0},{"OBJECT_NAME":"KUIPER-00050","OBJECT_ID":"2025-134L","EPOCH":"2026-07-19T18:38:25.507104","CLASSIFICATION_TYPE":"U","MEAN_MOTION":14.79930365,"ECCENTRICITY":0.0000517,"INCLINATION":51.9022,"RA_OF_ASC_NODE":346.4676,"ARG_OF_PERICENTER":121.0852,"MEAN_ANOMALY":239.0161,"EPHEMERIS_TYPE":0,"NORAD_CAT_ID":64510,"ELEMENT_SET_NO":999,"REV_AT_EPOCH":5995,"BSTAR":0.00022406,"MEAN_MOTION_DOT":0.00001487,"MEAN_MOTION_DDOT":0},{"OBJECT_NAME":"KUIPER-00051","OBJECT_ID":"2025-134M","EPOCH":"2026-07-19T19:13:55.565184","CLASSIFICATION_TYPE":"U","MEAN_MOTION":14.79941887,"ECCENTRICITY":0.0000622,"INCLINATION":51.9034,"RA_OF_ASC_NODE":2.5294,"ARG_OF_PERICENTER":125.9171,"MEAN_ANOMALY":234.1849,"EPHEMERIS_TYPE":0,"NORAD_CAT_ID":64511,"ELEMENT_SET_NO":999,"REV_AT_EPOCH":5972,"BSTAR":0.00021876,"MEAN_MOTION_DOT":0.00001447,"MEAN_MOTION_DDOT":0},{"OBJECT_NAME":"KUIPER-00053","OBJECT_ID":"2025-134P","EPOCH":"2026-07-19T19:35:37.419648","CLASSIFICATION_TYPE":"U","MEAN_MOTION":14.81692159,"ECCENTRICITY":0.000048,"INCLINATION":51.9027,"RA_OF_ASC_NODE":357.65,"ARG_OF_PERICENTER":343.1559,"MEAN_ANOMALY":16.9388,"EPHEMERIS_TYPE":0,"NORAD_CAT_ID":64513,"ELEMENT_SET_NO":999,"REV_AT_EPOCH":5979,"BSTAR":0.00020611,"MEAN_MOTION_DOT":0.00001415,"MEAN_MOTION_DDOT":0},{"OBJECT_NAME":"KUIPER-00054","OBJECT_ID":"2025-134Q","EPOCH":"2026-07-19T19:15:23.075424","CLASSIFICATION_TYPE":"U","MEAN_MOTION":14.79953433,"ECCENTRICITY":0.0000759,"INCLINATION":51.9015,"RA_OF_ASC_NODE":353.845,"ARG_OF_PERICENTER":137.4984,"MEAN_ANOMALY":222.6037,"EPHEMERIS_TYPE":0,"NORAD_CAT_ID":64514,"ELEMENT_SET_NO":999,"REV_AT_EPOCH":5984,"BSTAR":0.00022818,"MEAN_MOTION_DOT":0.0000152,"MEAN_MOTION_DDOT":0},{"OBJECT_NAME":"KUIPER-00055","OBJECT_ID":"2025-134R","EPOCH":"2026-07-19T16:26:05.623584","CLASSIFICATION_TYPE":"U","MEAN_MOTION":14.79930887,"ECCENTRICITY":0.0000393,"INCLINATION":51.9032,"RA_OF_ASC_NODE":306.9997,"ARG_OF_PERICENTER":117.5116,"MEAN_ANOMALY":242.5886,"EPHEMERIS_TYPE":0,"NORAD_CAT_ID":64515,"ELEMENT_SET_NO":999,"REV_AT_EPOCH":6049,"BSTAR":0.00021133,"MEAN_MOTION_DOT":0.0000139,"MEAN_MOTION_DDOT":0},{"OBJECT_NAME":"KUIPER-00056","OBJECT_ID":"2025-134S","EPOCH":"2026-07-19T19:56:16.635840","CLASSIFICATION_TYPE":"U","MEAN_MOTION":14.79930588,"ECCENTRICITY":0.0000646,"INCLINATION":51.9037,"RA_OF_ASC_NODE":358.8152,"ARG_OF_PERICENTER":122.5973,"MEAN_ANOMALY":237.5052,"EPHEMERIS_TYPE":0,"NORAD_CAT_ID":64516,"ELEMENT_SET_NO":999,"REV_AT_EPOCH":5978,"BSTAR":0.00023196,"MEAN_MOTION_DOT":0.00001547,"MEAN_MOTION_DDOT":0},{"OBJECT_NAME":"KUIPER-00057","OBJECT_ID":"2025-134T","EPOCH":"2026-07-19T19:44:36.337056","CLASSIFICATION_TYPE":"U","MEAN_MOTION":14.7993145,"ECCENTRICITY":0.00006,"INCLINATION":51.9009,"RA_OF_ASC_NODE":6.2805,"ARG_OF_PERICENTER":114.5342,"MEAN_ANOMALY":245.5683,"EPHEMERIS_TYPE":0,"NORAD_CAT_ID":64517,"ELEMENT_SET_NO":999,"REV_AT_EPOCH":5967,"BSTAR":0.00025925,"MEAN_MOTION_DOT":0.00001756,"MEAN_MOTION_DDOT":0},{"OBJECT_NAME":"KUIPER-00058","OBJECT_ID":"2025-134U","EPOCH":"2026-07-19T20:40:58.170432","CLASSIFICATION_TYPE":"U","MEAN_MOTION":14.79944523,"ECCENTRICITY":0.0000577,"INCLINATION":51.9031,"RA_OF_ASC_NODE":1.0789,"ARG_OF_PERICENTER":119.2285,"MEAN_ANOMALY":240.8735,"EPHEMERIS_TYPE":0,"NORAD_CAT_ID":64518,"ELEMENT_SET_NO":999,"REV_AT_EPOCH":5975,"BSTAR":0.00024429,"MEAN_MOTION_DOT":0.00001642,"MEAN_MOTION_DDOT":0},{"OBJECT_NAME":"KUIPER-00059","OBJECT_ID":"2025-134V","EPOCH":"2026-07-19T17:34:16.801824","CLASSIFICATION_TYPE":"U","MEAN_MOTION":14.79929806,"ECCENTRICITY":0.0000635,"INCLINATION":51.9016,"RA_OF_ASC_NODE":356.6925,"ARG_OF_PERICENTER":127.046,"MEAN_ANOMALY":233.056,"EPHEMERIS_TYPE":0,"NORAD_CAT_ID":64519,"ELEMENT_SET_NO":999,"REV_AT_EPOCH":5980,"BSTAR":0.00023573,"MEAN_MOTION_DOT":0.00001576,"MEAN_MOTION_DDOT":0},{"OBJECT_NAME":"KUIPER-00060","OBJECT_ID":"2025-134W","EPOCH":"2026-07-19T16:45:40.469184","CLASSIFICATION_TYPE":"U","MEAN_MOTION":14.79929976,"ECCENTRICITY":0.0000635,"INCLINATION":51.904,"RA_OF_ASC_NODE":356.9068,"ARG_OF_PERICENTER":116.7312,"MEAN_ANOMALY":243.3716,"EPHEMERIS_TYPE":0,"NORAD_CAT_ID":64520,"ELEMENT_SET_NO":999,"REV_AT_EPOCH":5978,"BSTAR":0.000223,"MEAN_MOTION_DOT":0.00001479,"MEAN_MOTION_DDOT":0},{"OBJECT_NAME":"KUIPER-00061","OBJECT_ID":"2025-134X","EPOCH":"2026-07-19T04:24:45.112608","CLASSIFICATION_TYPE":"U","MEAN_MOTION":14.79935173,"ECCENTRICITY":0.00008024,"INCLINATION":51.9027,"RA_OF_ASC_NODE":6.6334,"ARG_OF_PERICENTER":125.8365,"MEAN_ANOMALY":234.2672,"EPHEMERIS_TYPE":0,"NORAD_CAT_ID":64521,"ELEMENT_SET_NO":999,"REV_AT_EPOCH":5960,"BSTAR":0.00025083039,"MEAN_MOTION_DOT":0.00001692,"MEAN_MOTION_DDOT":0}]}
